{"type": "FeatureCollection", "features": [ {"type": "Feature", "properties": {"norad_id": 41335, "name": "SENTINEL-3A", "group": "resource", "lat": -9.499241323803027, "lon": -132.91661707794145, "alt_km": 806.7986543063553, "timestamp": "2025-12-09T11:33:54.457717+00:00", "meta": {"OBJECT_NAME": "SENTINEL-3A", "OBJECT_ID": "2016-011A", "EPOCH": "2025-12-09T03:56:50.722944", "MEAN_MOTION": 14.26744387, "ECCENTRICITY": 9.53e-05, "INCLINATION": 98.6211, "RA_OF_ASC_NODE": 48.2254, "ARG_OF_PERICENTER": 93.0579, "MEAN_ANOMALY": 267.0711, "EPHEMERIS_TYPE": 0, "CLASSIFICATION_TYPE": "U", "NORAD_CAT_ID": 41335, "ELEMENT_SET_NO": 999, "REV_AT_EPOCH": 51096, "BSTAR": 0.00011358, "MEAN_MOTION_DOT": 2.31e-06, "MEAN_MOTION_DDOT": 0}, "tle": {"line1": "1 41335U 16011A   25343.16447596  .00000231  00000+0  11358-3 0  9990", "line2": "2 41335  98.6211  48.2254 0000953  93.0579 267.0711 14.26744387510961"}}, "geometry": {"type": "Point", "coordinates": [-132.91661707794145, -9.499241323803027]}}, {"type": "Feature", "properties": {"norad_id": 41556, "name": "ZIYUAN 3-2 (ZY 3-2)", "group": "resource", "lat": -82.31003968306302, "lon": 132.08624523533086, "alt_km": 500.4907102199086, "timestamp": "2025-12-09T11:33:54.457728+00:00", "meta": {"OBJECT_NAME": "ZIYUAN 3-2 (ZY 3-2)", "OBJECT_ID": "2016-033A", "EPOCH": "2025-12-09T04:03:29.888352", "MEAN_MOTION": 15.2141985, "ECCENTRICITY": 0.0012428, "INCLINATION": 97.4042, "RA_OF_ASC_NODE": 57.3947, "ARG_OF_PERICENTER": 263.0756, "MEAN_ANOMALY": 96.9066, "EPHEMERIS_TYPE": 0, "CLASSIFICATION_TYPE": "U", "NORAD_CAT_ID": 41556, "ELEMENT_SET_NO": 999, "REV_AT_EPOCH": 52909, "BSTAR": 0.00040779, "MEAN_MOTION_DOT": 9.107e-05, "MEAN_MOTION_DDOT": 0}, "tle": {"line1": "1 41556U 16033A   25343.16909593  .00009107  00000+0  40779-3 0  9999", "line2": "2 41556  97.4042  57.3947 0012428 263.0756  96.9066 15.21419850529097"}}, "geometry": {"type": "Point", "coordinates": [132.08624523533086, -82.31003968306302]}}, {"type": "Feature", "properties": {"norad_id": 41599, "name": "CARTOSAT-2C", "group": "resource", "lat": -60.84852080750301, "lon": -152.85303377965687, "alt_km": 522.596006982335, "timestamp": "2025-12-09T11:33:54.457738+00:00", "meta": {"OBJECT_NAME": "CARTOSAT-2C", "OBJECT_ID": "2016-040A", "EPOCH": "2025-12-09T04:10:55.701984", "MEAN_MOTION": 15.1923886, "ECCENTRICITY": 0.001084, "INCLINATION": 97.4766, "RA_OF_ASC_NODE": 40.4608, "ARG_OF_PERICENTER": 75.635, "MEAN_ANOMALY": 284.6087, "EPHEMERIS_TYPE": 0, "CLASSIFICATION_TYPE": "U", "NORAD_CAT_ID": 41599, "ELEMENT_SET_NO": 999, "REV_AT_EPOCH": 52486, "BSTAR": 0.00026584, "MEAN_MOTION_DOT": 5.541e-05, "MEAN_MOTION_DDOT": 0}, "tle": {"line1": "1 41599U 16040A   25343.17425581  .00005541  00000+0  26584-3 0  9991", "line2": "2 41599  97.4766  40.4608 0010840  75.6350 284.6087 15.19238860524863"}}, "geometry": {"type": "Point", "coordinates": [-152.85303377965687, -60.84852080750301]}}, {"type": "Feature", "properties": {"norad_id": 41601, "name": "SKYSAT-C1", "group": "resource", "lat": 38.005558674787096, "lon": -153.8250442133508, "alt_km": 466.53051381915066, "timestamp": "2025-12-09T11:33:54.457748+00:00", "meta": {"OBJECT_NAME": "SKYSAT-C1", "OBJECT_ID": "2016-040C", "EPOCH": "2025-12-09T01:32:49.174656", "MEAN_MOTION": 15.32485031, "ECCENTRICITY": 0.0002781, "INCLINATION": 96.9825, "RA_OF_ASC_NODE": 20.2852, "ARG_OF_PERICENTER": 26.1748, "MEAN_ANOMALY": 333.9635, "EPHEMERIS_TYPE": 0, "CLASSIFICATION_TYPE": "U", "NORAD_CAT_ID": 41601, "ELEMENT_SET_NO": 999, "REV_AT_EPOCH": 52871, "BSTAR": 0.00036453, "MEAN_MOTION_DOT": 0.00011368, "MEAN_MOTION_DDOT": 0}, "tle": {"line1": "1 41601U 16040C   25343.06445804  .00011368  00000+0  36453-3 0  9993", "line2": "2 41601  96.9825  20.2852 0002781  26.1748 333.9635 15.32485031528715"}}, "geometry": {"type": "Point", "coordinates": [-153.8250442133508, 38.005558674787096]}}, {"type": "Feature", "properties": {"norad_id": 41603, "name": "LAPAN-A3", "group": "resource", "lat": -62.18987634540977, "lon": -5.089436645626642, "alt_km": 474.03451886708626, "timestamp": "2025-12-09T11:33:54.457758+00:00", "meta": {"OBJECT_NAME": "LAPAN-A3", "OBJECT_ID": "2016-040E", "EPOCH": "2025-12-09T05:34:01.752672", "MEAN_MOTION": 15.31507429, "ECCENTRICITY": 0.0010075, "INCLINATION": 97.1431, "RA_OF_ASC_NODE": 340.9155, "ARG_OF_PERICENTER": 347.3273, "MEAN_ANOMALY": 12.7714, "EPHEMERIS_TYPE": 0, "CLASSIFICATION_TYPE": "U", "NORAD_CAT_ID": 41603, "ELEMENT_SET_NO": 999, "REV_AT_EPOCH": 52572, "BSTAR": 0.00017567, "MEAN_MOTION_DOT": 5.278e-05, "MEAN_MOTION_DDOT": 0}, "tle": {"line1": "1 41603U 16040E   25343.23196473  .00005278  00000+0  17567-3 0  9997", "line2": "2 41603  97.1431 340.9155 0010075 347.3273  12.7714 15.31507429525720"}}, "geometry": {"type": "Point", "coordinates": [-5.089436645626642, -62.18987634540977]}}, {"type": "Feature", "properties": {"norad_id": 41604, "name": "BIROS", "group": "resource", "lat": 12.53978103635677, "lon": -163.63195080119604, "alt_km": 306.4350509679798, "timestamp": "2025-12-09T11:33:54.457769+00:00", "meta": {"OBJECT_NAME": "BIROS", "OBJECT_ID": "2016-040F", "EPOCH": "2025-12-09T01:47:24.558720", "MEAN_MOTION": 15.88119261, "ECCENTRICITY": 0.0003203, "INCLINATION": 97.0691, "RA_OF_ASC_NODE": 14.3635, "ARG_OF_PERICENTER": 156.004, "MEAN_ANOMALY": 204.1383, "EPHEMERIS_TYPE": 0, "CLASSIFICATION_TYPE": "U", "NORAD_CAT_ID": 41604, "ELEMENT_SET_NO": 999, "REV_AT_EPOCH": 52814, "BSTAR": 0.00066699, "MEAN_MOTION_DOT": 0.00184271, "MEAN_MOTION_DDOT": 0}, "tle": {"line1": "1 41604U 16040F   25343.07458980  .00184271  00000+0  66699-3 0  9995", "line2": "2 41604  97.0691  14.3635 0003203 156.0040 204.1383 15.88119261528148"}}, "geometry": {"type": "Point", "coordinates": [-163.63195080119604, 12.53978103635677]}}, {"type": "Feature", "properties": {"norad_id": 41727, "name": "GAOFEN-3", "group": "resource", "lat": 39.465019379709375, "lon": -17.87306315725292, "alt_km": 747.1633002459939, "timestamp": "2025-12-09T11:33:54.457779+00:00", "meta": {"OBJECT_NAME": "GAOFEN-3", "OBJECT_ID": "2016-049A", "EPOCH": "2025-12-09T04:43:12.379584", "MEAN_MOTION": 14.42212571, "ECCENTRICITY": 0.0001523, "INCLINATION": 98.4035, "RA_OF_ASC_NODE": 348.8367, "ARG_OF_PERICENTER": 65.5175, "MEAN_ANOMALY": 294.6173, "EPHEMERIS_TYPE": 0, "CLASSIFICATION_TYPE": "U", "NORAD_CAT_ID": 41727, "ELEMENT_SET_NO": 999, "REV_AT_EPOCH": 49126, "BSTAR": 7.4699e-05, "MEAN_MOTION_DOT": 2.03e-06, "MEAN_MOTION_DDOT": 0}, "tle": {"line1": "1 41727U 16049A   25343.19667106  .00000203  00000+0  74699-4 0  9997", "line2": "2 41727  98.4035 348.8367 0001523  65.5175 294.6173 14.42212571491264"}}, "geometry": {"type": "Point", "coordinates": [-17.87306315725292, 39.465019379709375]}}, {"type": "Feature", "properties": {"norad_id": 41771, "name": "SKYSAT-C4", "group": "resource", "lat": -35.838758126456916, "lon": 13.873167676709276, "alt_km": 447.0916653043305, "timestamp": "2025-12-09T11:33:54.457789+00:00", "meta": {"OBJECT_NAME": "SKYSAT-C4", "OBJECT_ID": "2016-058B", "EPOCH": "2025-12-09T00:49:12.472896", "MEAN_MOTION": 15.42085038, "ECCENTRICITY": 0.0001157, "INCLINATION": 96.9374, "RA_OF_ASC_NODE": 8.402, "ARG_OF_PERICENTER": 132.7744, "MEAN_ANOMALY": 227.3602, "EPHEMERIS_TYPE": 0, "CLASSIFICATION_TYPE": "U", "NORAD_CAT_ID": 41771, "ELEMENT_SET_NO": 999, "REV_AT_EPOCH": 51610, "BSTAR": 0.00040944, "MEAN_MOTION_DOT": 0.00017439, "MEAN_MOTION_DDOT": 0}, "tle": {"line1": "1 41771U 16058B   25343.03417214  .00017439  00000+0  40944-3 0  9996", "line2": "2 41771  96.9374   8.4020 0001157 132.7744 227.3602 15.42085038516107"}}, "geometry": {"type": "Point", "coordinates": [13.873167676709276, -35.838758126456916]}}, {"type": "Feature", "properties": {"norad_id": 41772, "name": "SKYSAT-C5", "group": "resource", "lat": -39.89396993558184, "lon": 33.32290852486785, "alt_km": 468.2724851780313, "timestamp": "2025-12-09T11:33:54.457803+00:00", "meta": {"OBJECT_NAME": "SKYSAT-C5", "OBJECT_ID": "2016-058C", "EPOCH": "2025-12-09T02:21:16.658208", "MEAN_MOTION": 15.35258882, "ECCENTRICITY": 0.0002267, "INCLINATION": 97.0758, "RA_OF_ASC_NODE": 26.9942, "ARG_OF_PERICENTER": 143.2849, "MEAN_ANOMALY": 216.8551, "EPHEMERIS_TYPE": 0, "CLASSIFICATION_TYPE": "U", "NORAD_CAT_ID": 41772, "ELEMENT_SET_NO": 999, "REV_AT_EPOCH": 51460, "BSTAR": 0.0003512, "MEAN_MOTION_DOT": 0.00011953, "MEAN_MOTION_DDOT": 0}, "tle": {"line1": "1 41772U 16058C   25343.09810947  .00011953  00000+0  35120-3 0  9998", "line2": "2 41772  97.0758  26.9942 0002267 143.2849 216.8551 15.35258882514600"}}, "geometry": {"type": "Point", "coordinates": [33.32290852486785, -39.89396993558184]}}, {"type": "Feature", "properties": {"norad_id": 41773, "name": "SKYSAT-C2", "group": "resource", "lat": -52.77164103539659, "lon": 17.50187161689953, "alt_km": 461.88153834690274, "timestamp": "2025-12-09T11:33:54.457813+00:00", "meta": {"OBJECT_NAME": "SKYSAT-C2", "OBJECT_ID": "2016-058D", "EPOCH": "2025-12-09T00:51:36.969984", "MEAN_MOTION": 15.37139367, "ECCENTRICITY": 0.0004612, "INCLINATION": 97.0362, "RA_OF_ASC_NODE": 7.7195, "ARG_OF_PERICENTER": 43.8765, "MEAN_ANOMALY": 316.2846, "EPHEMERIS_TYPE": 0, "CLASSIFICATION_TYPE": "U", "NORAD_CAT_ID": 41773, "ELEMENT_SET_NO": 999, "REV_AT_EPOCH": 51579, "BSTAR": 0.00037735, "MEAN_MOTION_DOT": 0.00013655, "MEAN_MOTION_DDOT": 0}, "tle": {"line1": "1 41773U 16058D   25343.03584456  .00013655  00000+0  37735-3 0  9991", "line2": "2 41773  97.0362   7.7195 0004612  43.8765 316.2846 15.37139367515798"}}, "geometry": {"type": "Point", "coordinates": [17.50187161689953, -52.77164103539659]}}]}